{
  "type": "FeatureCollection",
  "features": [
    {
      "type": "Feature",
      "properties": {
        "norad_id": 63772,
        "name": "BIOMASS",
        "group": "resource",
        "lat": -62.27550212297096,
        "lon": -26.137718392947637,
        "alt_km": 676.9457039719464,
        "timestamp": "2025-12-10T11:33:53.049367+00:00",
        "meta_object_name": "BIOMASS",
        "meta_object_id": "2025-090A",
        "meta_epoch": "2025-12-10T02:16:38.800128",
        "meta_mean_motion": 14.67536787,
        "meta_eccentricity": 0.0001206,
        "meta_inclination": 98.07,
        "meta_ra_of_asc_node": 169.1432,
        "meta_arg_of_pericenter": 77.5553,
        "meta_mean_anomaly": 282.5786,
        "meta_ephemeris_type": 0,
        "meta_classification_type": "U",
        "meta_norad_cat_id": 63772,
        "meta_element_set_no": 999,
        "meta_rev_at_epoch": 3295,
        "meta_bstar": 0.00037987,
        "meta_mean_motion_dot": 2.106e-05,
        "meta_mean_motion_ddot": 0,
        "tle_line1": "1 63772U 25090A   25344.09489352  .00002106  00000+0  37987-3 0  9994",
        "tle_line2": "2 63772  98.0700 169.1432 0001206  77.5553 282.5786 14.67536787 32959"
      },
      "geometry": {
        "type": "Point",
        "coordinates": [
          -26.137718392947637,
          -62.27550212297096
        ]
      }
    },
    {
      "type": "Feature",
      "properties": {
        "norad_id": 64694,
        "name": "GOSAT-GW (IBUKI GW)",
        "group": "resource",
        "lat": 81.51391585898372,
        "lon": 171.4093602974389,
        "alt_km": 660.3607538075958,
        "timestamp": "2025-12-10T11:33:53.049377+00:00",
        "meta_object_name": "GOSAT-GW (IBUKI GW)",
        "meta_object_id": "2025-141A",
        "meta_epoch": "2025-12-08T18:14:08.043648",
        "meta_mean_motion": 14.67565462,
        "meta_eccentricity": 0.00014946,
        "meta_inclination": 98.0423,
        "meta_ra_of_asc_node": 278.345,
        "meta_arg_of_pericenter": 82.5316,
        "meta_mean_anomaly": 277.6059,
        "meta_ephemeris_type": 0,
        "meta_classification_type": "U",
        "meta_norad_cat_id": 64694,
        "meta_element_set_no": 999,
        "meta_rev_at_epoch": 2391,
        "meta_bstar": 0.00038232231,
        "meta_mean_motion_dot": 2.122e-05,
        "meta_mean_motion_ddot": 0,
        "tle_line1": "1 64694U 25141A   25342.75981532  .00002122  00000+0  38232-3 0  9995",
        "tle_line2": "2 64694  98.0423 278.3450 0001494  82.5316 277.6059 14.67565462 23916"
      },
      "geometry": {
        "type": "Point",
        "coordinates": [
          171.4093602974389,
          81.51391585898372
        ]
      }
    },
    {
      "type": "Feature",
      "properties": {
        "norad_id": 64876,
        "name": "IONOSFERA-M 3",
        "group": "resource",
        "lat": 68.80129722929503,
        "lon": 149.31453625336601,
        "alt_km": 812.6342936574138,
        "timestamp": "2025-12-10T11:33:53.049387+00:00",
        "meta_object_name": "IONOSFERA-M 3",
        "meta_object_id": "2025-155A",
        "meta_epoch": "2025-12-10T04:17:40.055712",
        "meta_mean_motion": 14.21439934,
        "meta_eccentricity": 0.0002293,
        "meta_inclination": 98.5779,
        "meta_ra_of_asc_node": 306.1176,
        "meta_arg_of_pericenter": 64.1146,
        "meta_mean_anomaly": 296.0267,
        "meta_ephemeris_type": 0,
        "meta_classification_type": "U",
        "meta_norad_cat_id": 64876,
        "meta_element_set_no": 999,
        "meta_rev_at_epoch": 1955,
        "meta_bstar": 8.1742e-05,
        "meta_mean_motion_dot": 1.36e-06,
        "meta_mean_motion_ddot": 0,
        "tle_line1": "1 64876U 25155A   25344.17893583  .00000136  00000+0  81742-4 0  9996",
        "tle_line2": "2 64876  98.5779 306.1176 0002293  64.1146 296.0267 14.21439934 19552"
      },
      "geometry": {
        "type": "Point",
        "coordinates": [
          149.31453625336601,
          68.80129722929503
        ]
      }
    },
    {
      "type": "Feature",
      "properties": {
        "norad_id": 64877,
        "name": "IONOSFERA-M 4",
        "group": "resource",
        "lat": -68.31255618590781,
        "lon": -31.364206013542297,
        "alt_km": 828.5642077935527,
        "timestamp": "2025-12-10T11:33:53.049397+00:00",
        "meta_object_name": "IONOSFERA-M 4",
        "meta_object_id": "2025-155B",
        "meta_epoch": "2025-12-10T03:26:48.144192",
        "meta_mean_motion": 14.21441089,
        "meta_eccentricity": 0.0001655,
        "meta_inclination": 98.5778,
        "meta_ra_of_asc_node": 306.0028,
        "meta_arg_of_pericenter": 66.058,
        "meta_mean_anomaly": 294.0771,
        "meta_ephemeris_type": 0,
        "meta_classification_type": "U",
        "meta_norad_cat_id": 64877,
        "meta_element_set_no": 999,
        "meta_rev_at_epoch": 1954,
        "meta_bstar": 9.726e-05,
        "meta_mean_motion_dot": 1.7e-06,
        "meta_mean_motion_ddot": 0,
        "tle_line1": "1 64877U 25155B   25344.14361278  .00000170  00000+0  97260-4 0  9995",
        "tle_line2": "2 64877  98.5778 306.0028 0001655  66.0580 294.0771 14.21441089 19542"
      },
      "geometry": {
        "type": "Point",
        "coordinates": [
          -31.364206013542297,
          -68.31255618590781
        ]
      }
    },
    {
      "type": "Feature",
      "properties": {
        "norad_id": 64899,
        "name": "MICROCARB",
        "group": "resource",
        "lat": 33.25059777400439,
        "lon": 54.571125541981374,
        "alt_km": 658.066168179018,
        "timestamp": "2025-12-10T11:33:53.049407+00:00",
        "meta_object_name": "MICROCARB",
        "meta_object_id": "2025-156A",
        "meta_epoch": "2025-12-10T03:15:19.119744",
        "meta_mean_motion": 14.72050164,
        "meta_eccentricity": 0.0016978,
        "meta_inclination": 98.0028,
        "meta_ra_of_asc_node": 59.5229,
        "meta_arg_of_pericenter": 152.7192,
        "meta_mean_anomaly": 207.4911,
        "meta_ephemeris_type": 0,
        "meta_classification_type": "U",
        "meta_norad_cat_id": 64899,
        "meta_element_set_no": 999,
        "meta_rev_at_epoch": 2015,
        "meta_bstar": 0.00018947,
        "meta_mean_motion_dot": 1.143e-05,
        "meta_mean_motion_ddot": 0,
        "tle_line1": "1 64899U 25156A   25344.13563796  .00001143  00000+0  18947-3 0  9993",
        "tle_line2": "2 64899  98.0028  59.5229 0016978 152.7192 207.4911 14.72050164 20157"
      },
      "geometry": {
        "type": "Point",
        "coordinates": [
          54.571125541981374,
          33.25059777400439
        ]
      }
    },
    {
      "type": "Feature",
      "properties": {
        "norad_id": 64900,
        "name": "CO3D 3",
        "group": "resource",
        "lat": 44.157643468557815,
        "lon": 53.59731840423967,
        "alt_km": 500.96562921707937,
        "timestamp": "2025-12-10T11:33:53.049417+00:00",
        "meta_object_name": "CO3D 3",
        "meta_object_id": "2025-156B",
        "meta_epoch": "2025-12-10T05:03:00.396000",
        "meta_mean_motion": 15.2020128,
        "meta_eccentricity": 0.0001384,
        "meta_inclination": 97.4339,
        "meta_ra_of_asc_node": 60.6137,
        "meta_arg_of_pericenter": 98.784,
        "meta_mean_anomaly": 261.3552,
        "meta_ephemeris_type": 0,
        "meta_classification_type": "U",
        "meta_norad_cat_id": 64900,
        "meta_element_set_no": 999,
        "meta_rev_at_epoch": 2082,
        "meta_bstar": 0.00066934,
        "meta_mean_motion_dot": 0.0001445,
        "meta_mean_motion_ddot": 0,
        "tle_line1": "1 64900U 25156B   25344.21042125  .00014450  00000+0  66934-3 0  9997",
        "tle_line2": "2 64900  97.4339  60.6137 0001384  98.7840 261.3552 15.20201280 20828"
      },
      "geometry": {
        "type": "Point",
        "coordinates": [
          53.59731840423967,
          44.157643468557815
        ]
      }
    },
    {
      "type": "Feature",
      "properties": {
        "norad_id": 64901,
        "name": "CO3D 4",
        "group": "resource",
        "lat": 43.336109228273834,
        "lon": 53.80452706771072,
        "alt_km": 502.4706579897047,
        "timestamp": "2025-12-10T11:33:53.049427+00:00",
        "meta_object_name": "CO3D 4",
        "meta_object_id": "2025-156C",
        "meta_epoch": "2025-12-09T21:09:17.831232",
        "meta_mean_motion": 15.20201124,
        "meta_eccentricity": 0.0001172,
        "meta_inclination": 97.4339,
        "meta_ra_of_asc_node": 60.2895,
        "meta_arg_of_pericenter": 212.2858,
        "meta_mean_anomaly": 147.8305,
        "meta_ephemeris_type": 0,
        "meta_classification_type": "U",
        "meta_norad_cat_id": 64901,
        "meta_element_set_no": 999,
        "meta_rev_at_epoch": 2077,
        "meta_bstar": -2.5807e-05,
        "meta_mean_motion_dot": -6.26e-06,
        "meta_mean_motion_ddot": 0,
        "tle_line1": "1 64901U 25156C   25343.88145638 -.00000626  00000+0 -25807-4 0  9990",
        "tle_line2": "2 64901  97.4339  60.2895 0001172 212.2858 147.8305 15.20201124 20778"
      },
      "geometry": {
        "type": "Point",
        "coordinates": [
          53.80452706771072,
          43.336109228273834
        ]
      }
    }
  ]
}